P/2017 D1 (Fuls),e,20.7590,82.1850,7.9572,4.822908,0.0930552,0.43928679,83.7596,12/16.0/2018,2000,g 14.0,4.0
# From MPC112391
C/2017 D2 (Barros),e,31.2593,331.0269,334.3683,1842,0.0000125,0.99865043,0.0000,07/14.6127/2017,2000,g 11.0,4.0
# From MPC111769
C/2017 D3 (ATLAS),h,04/26.8750/2017,125.5609,186.6198,340.7991,1.001421,4.972575,2000,8.0,4.0
# From MPC110495
P/2017 D4 (PANSTARRS),e,10.5155,264.9828,212.1289,7.576126,0.0472643,0.63113772,39.1444,12/16.0/2018,2000,g 13.0,4.0
# From MPC104794
C/2017 D5 (PANSTARRS),e,131.0546,92.7297,287.8352,114.4242,0.0008052,0.98106329,0.0000,01/08.9902/2017,2000,g 16.0,4.0
# From MPC106346
C/2017 E1 (Borisov),h,04/10.2323/2017,14.5563,142.6879,152.5164,1.002778,0.900304,2000,14.0,4.0
# From MPC109144
C/2017 E2 (Tsuchinshan),e,78.9959,11.5442,89.4088,21.60237,0.0098164,0.89116673,9.3064,12/16.0/2018,2000,g 11.5,4.0
# From MPC111769
C/2017 E3 (PANSTARRS),h,06/08.2700/2017,70.6282,220.7283,334.4736,1.008479,5.933168,2000,6.5,4.0
# From MPC105239
C/2017 E4 (Lovejoy),h,04/23.3545/2017,88.1710,223.1929,87.1129,1.001498,0.493093,2000,17.0,4.0
# From MPC105239
C/2017 E5 (Lemmon),e,122.6496,206.2172,306.7927,373.6620,0.0001365,0.99522299,0.0000,06/10.6213/2016,2000,g 13.0,4.0
# From MPC111769
C/2017 F1 (Lemmon),h,11/30.9349/2017,146.4808,158.7586,64.8185,1.004788,4.499470,2000,10.5,4.0
# From MPC111769
C/2017 F2 (PANSTARRS),h,11/27.3742/2017,42.5062,38.6689,134.9935,1.005681,6.928980,2000,7.5,4.0
# From MPC104794
P/2017 G1 (PANSTARRS),e,4.7734,249.6338,224.5991,7.314324,0.0498245,0.65572041,47.7170,12/16.0/2018,2000,g 13.5,4.0
# From MPC108595
P/2017 G2 (PANSTARRS),e,47.9561,79.8039,105.8001,8.116468,0.0426239,0.64972064,23.4704,12/16.0/2018,2000,g 13.0,4.0
# From MPC109144
C/2017 G3 (PANSTARRS),e,159.0547,279.4803,73.1263,288.3195,0.0002013,0.99101212,0.0000,04/15.0920/2017,2000,g 14.0,4.0
# From MPC111769
C/2017 K1 (PANSTARRS),h,03/15.8657/2018,154.0047,225.6400,4.2828,1.000546,7.286571,2000,7.0,4.0
# From MPC112391
C/2017 K2 (PANSTARRS),h,12/20.6300/2022,87.5437,88.2592,236.0825,1.000364,1.805304,2000,1.5,4.0
# From MPC106346
P/2017 K3 (Gasparovic),e,4.2778,354.3156,253.3297,5.575252,0.0748699,0.58114088,42.1703,12/16.0/2018,2000,g 14.5,4.0
# From MPC112391
C/2017 K4 (ATLAS),e,16.6780,298.8897,15.1316,28.22750,0.0065720,0.90618159,2.2470,12/16.0/2018,2000,g 10.0,4.0
# From MPC110495
C/2017 K5 (PANSTARRS),h,03/22.5148/2020,82.2576,102.3773,171.7133,1.003748,7.680339,2000,7.0,4.0
# From MPC112391
C/2017 K6 (Jacques),e,57.2546,85.0545,303.8253,1121,0.0000263,0.99821320,0.0000,01/03.1231/2018,2000,g 11.0,4.0
# From MPC110083
C/2017 M3 (PANSTARRS),e,77.5031,6.9995,110.3655,171.7744,0.0004378,0.97288415,0.0000,04/28.4592/2017,2000,g 10.5,4.0
# From MPC112391
C/2017 M4 (ATLAS),h,01/18.2611/2019,105.6588,65.8670,167.6386,1.001938,3.251749,2000,6.0,4.0
# From MPC112391
C/2017 M5 (TOTAS),h,06/03.1454/2018,15.8848,216.2640,92.6754,1.004116,5.989657,2000,6.5,4.0
# From MPC110495
C/2017 O1 (ASASSN),e,39.8499,25.8053,20.8960,386.1691,0.0001299,0.99611956,0.0000,10/14.7442/2017,2000,g 11.0,4.0
# From MPC106347
P/2017 P1 (PANSTARRS),e,7.7014,221.3937,122.1494,7.875272,0.0445970,0.30936374,8.1078,12/16.0/2018,2000,g 10.0,4.0
# From MPC111769
C/2017 P2 (PANSTARRS),e,50.0780,165.5439,132.2546,1411,0.0000186,0.99825490,0.0000,12/06.6079/2017,2000,g 10.0,4.0
# From MPC108595
P/2017 R1 (PANSTARRS),e,2.5730,143.6415,178.4235,4.134211,0.1172506,0.19521925,72.2845,12/16.0/2018,2000,g 13.5,4.0
# From MPC108595
C/2017 S2 (PANSTARRS),e,12.6833,62.4273,305.9468,20.46334,0.0106473,0.82339930,5.0441,12/16.0/2018,2000,g 13.0,4.0
# From MPC111770
C/2017 S3 (PANSTARRS),h,08/15.9730/2018,99.0383,171.0346,255.8029,1.000631,0.208508,2000,11.0,4.0
# From MPC110083
P/2017 S5 (ATLAS),e,11.8503,252.3917,99.8792,3.170629,0.1745766,0.31325316,88.3518,12/16.0/2018,2000,g 14.0,4.0
# From MPC109591
C/2017 S6 (Catalina),h,02/26.9647/2018,152.8375,130.9029,134.7351,1.001472,1.543310,2000,12.5,4.0
# From MPC112391
C/2017 S7 (Lemmon),h,05/27.2902/2017,124.2330,262.7940,187.7101,1.002429,7.613271,2000,7.0,4.0
# From MPC109145
P/2017 S8 (PANSTARRS),e,29.8570,191.8066,254.5719,2.775954,0.2131011,0.39350360,68.4796,12/16.0/2018,2000,g 16.0,4.0
# From MPC107050
P/2017 S9 (PANSTARRS),e,14.1402,146.2107,237.8248,3.155629,0.1758228,0.30460209,89.7822,12/16.0/2018,2000,g 17.0,4.0
# From MPC109145
C/2017 T1 (Heinze),h,02/21.6975/2018,96.8413,102.3231,96.8916,1.000012,0.580477,2000,14.5,4.0
# From MPC112391
C/2017 T2 (PANSTARRS),e,57.2365,64.3782,93.0017,11042,0.0000008,0.99985378,0.0000,05/04.9039/2020,2000,g  5.0,4.0
# From MPC111770
C/2017 T3 (ATLAS),e,88.1055,230.0860,246.8781,3518,0.0000047,0.99976539,0.0000,07/19.1588/2018,2000,g 10.0,4.0
# From MPEC 2018-W75
P/2017 TW13 (Lemmon),e,44.8385,322.2747,120.1073,7.160263,0.0514411,0.70967593,9.1578,12/16.0/2018,2000,g 15.0,2.0
# From MPC109145
C/2017 U2 (Fuls),e,95.4120,149.7175,147.7326,9073,0.0000011,0.99926151,0.0000,08/28.1628/2017,2000,g  9.0,4.0
# From MPC109146
P/2017 U3 (PANSTARRS),e,15.9076,165.1301,297.4022,4.935123,0.0898995,0.09942629,348.6414,12/16.0/2018,2000,g 11.0,4.0
# From MPC112392
C/2017 U4 (PANSTARRS),h,09/25.1920/2018,158.2265,245.9509,159.1447,1.003746,7.724215,2000,7.0,4.0
# From MPC109146
C/2017 U5 (PANSTARRS),e,18.9581,163.1026,262.1225,16.91121,0.0141724,0.74416977,5.1329,12/16.0/2018,2000,g 12.0,4.0
# From MPC111770
C/2017 W2 (Leonard),e,98.1898,312.8140,169.1621,13.70713,0.0194216,0.71129085,7.9442,12/16.0/2018,2000,g 11.0,4.0
# From MPC111770
P/2017 W3 (Gibbs),e,18.3060,210.7542,326.5582,7.767200,0.0455310,0.50587558,13.3505,12/16.0/2018,2000,g 10.5,4.0
# From MPC111770
C/2017 X1 (PANSTARRS),e,31.3115,251.1254,283.1392,31.35361,0.0056140,0.85128435,1.0347,12/16.0/2018,2000,g 10.0,4.0
# From MPC109146
C/2017 Y1 (PANSTARRS),e,55.2445,307.5125,134.4265,2595,0.0000075,0.99856696,0.0000,08/31.3578/2017,2000,g 11.5,4.0
# From MPC109146
C/2017 Y2 (PANSTARRS),e,126.0738,61.4849,146.1352,15.87142,0.0155876,0.67365589,346.5969,12/16.0/2018,2000,g  8.0,4.0
# From MPC111770
P/2017 Y3 (Leonard),e,27.5851,153.8721,67.5303,9.853932,0.0318632,0.87055939,9.8061,12/16.0/2018,2000,g 16.5,4.0
# From MPC111770
C/2018 A1 (PANSTARRS),e,53.5647,336.6200,96.3792,25.23168,0.0077765,0.90411548,3.2787,12/16.0/2018,2000,g 12.5,4.0
# From MPC112392
C/2018 A3 (ATLAS),e,139.5619,194.2794,86.4247,497.8545,0.0000887,0.99341822,0.0000,01/12.8579/2019,2000,g  8.5,4.0
# From MPC109592
C/2018 A4 (PANSTARRS),e,3.1483,97.6266,356.1050,12.38964,0.0226004,0.80602360,4.7754,12/16.0/2018,2000,g 14.0,4.0
# From MPC109147
P/2018 A5 (PANSTARRS),e,23.5776,87.8309,359.6701,5.644086,0.0735045,0.52269737,32.9486,12/16.0/2018,2000,g 15.0,4.0
# From MPC111771
C/2018 A6 (Gibbs),e,76.9545,340.3841,264.5151,15.35072,0.0163874,0.80339177,356.5546,12/16.0/2018,2000,g  9.0,4.0
# From MPC112392
C/2018 B1 (Lemmon),h,03/30.4108/2018,162.4235,133.1710,68.3472,1.002949,5.116679,2000,9.0,4.0
# From MPC111771
P/2018 C1 (Lemmon-Read),e,5.1340,270.4344,234.3976,5.582101,0.0747322,0.53489036,21.9138,12/16.0/2018,2000,g 13.5,4.0
# From MPC112392
C/2018 C2 (Lemmon),h,06/02.1853/2018,34.4580,91.1386,134.1218,1.001580,1.956315,2000,13.0,4.0
# From MPC111771
C/2018 E1 (ATLAS),e,72.4833,146.8388,299.4741,54.38000,0.0024578,0.95024884,0.5964,12/16.0/2018,2000,g 10.5,4.0
# From MPC110496
C/2018 E2 (Barros),e,97.7478,67.1943,277.4863,1245,0.0000224,0.99685116,0.0000,12/23.7424/2017,2000,g 10.5,4.0
# From MPC112392
C/2018 EN4 (NEOWISE),e,81.5628,136.1645,35.0130,18.41090,0.0124765,0.92135155,2.3858,12/16.0/2018,2000,g 15.0,4.0
# From MPC111771
C/2018 EF9 (Lemmon),e,84.6928,172.5794,72.6202,633.6381,0.0000618,0.99754327,0.0000,05/23.1305/2018,2000,g 18.0,2.0
# From MPC111771
C/2018 F1 (Grauer),e,46.0711,177.2911,71.6205,322.3516,0.0001703,0.99071470,0.0000,12/14.0740/2018,2000,g 11.5,4.0
# From MPC110084
C/2018 F3 (Johnson),p,08/15.2314/2017,105.5348,293.0113,2.483172,173.0311,2000,13.0,4.0
# From MPC111771
P/2018 H2 (PANSTARRS),e,7.3893,68.4559,120.1545,4.404163,0.1066373,0.53998087,34.8368,12/16.0/2018,2000,g 16.6,2.0
# From MPC111772
C/2018 K1 (Weiland),e,164.1956,260.0082,324.9823,29.97655,0.0060053,0.93733337,1.5201,12/16.0/2018,2000,g 14.9,4.0
# From MPC112392
C/2018 KJ3 (Lemmon),e,136.6709,91.5867,217.7037,958.0930,0.0000332,0.99621429,0.0000,09/09.9041/2019,2000,g 12.2,2.0
# From MPC111772
P/2018 L1 (PANSTARRS),e,10.5948,268.6271,17.8882,3.647615,0.1414785,0.48303901,4.7361,12/16.0/2018,2000,g 15.0,4.0
# From MPC112392
C/2018 L2 (ATLAS),e,67.4238,243.0182,56.2260,244.1885,0.0002583,0.99299002,0.0000,12/02.5748/2018,2000,g 10.0,4.0
# From MPC112392
P/2018 L4 (PANSTARRS),e,26.6258,145.1922,140.4385,4.933736,0.0899374,0.66024534,12.3349,12/16.0/2018,2000,g 17.5,4.0
# From MPC112392
P/2018 L5 (Leonard),e,2.2091,219.1604,93.6450,3.625332,0.1427850,0.36465024,32.1957,12/16.0/2018,2000,g 14.5,4.0
# From MPC112392
C/2018 M1 (Catalina),e,37.2574,339.4627,14.1363,21.30824,0.0100203,0.93882624,1.5930,12/16.0/2018,2000,g 15.5,4.0
# From MPC112393
C/2018 N1 (NEOWISE),e,159.4439,292.4451,354.5636,345.9971,0.0001531,0.99622176,0.0000,08/01.9859/2018,2000,g 15.5,4.0
# From MPC112393
C/2018 N2 (ASASSN),e,77.5380,25.2601,24.4047,15033,0.0000005,0.99979215,0.0000,11/11.0513/2019,2000,g  6.0,4.0
# From MPC112393
C/2018 O1 (ATLAS),e,154.0424,87.6208,162.5023,27.86124,0.0067020,0.94407678,0.7133,12/16.0/2018,2000,g 17.0,4.0
# From MPC112393
P/2018 P3 (PANSTARRS),e,8.9095,59.2114,305.8774,3.007367,0.1889838,0.41592082,12.7657,12/16.0/2018,2000,g 17.5,4.0
# From MPC112393
P/2018 P4 (PANSTARRS),e,23.1116,353.1101,8.1116,6.658493,0.0573641,0.44940217,2.2188,12/16.0/2018,2000,g 12.0,4.0
# From MPC112393
C/2018 P5 (PANSTARRS),e,7.2568,216.2422,131.6294,12.73751,0.0216809,0.64075503,358.4349,12/16.0/2018,2000,g 11.0,4.0
# From MPC112393
C/2018 R3 (Lemmon),e,69.7138,324.6264,112.8801,1407,0.0000187,0.99908288,0.0000,06/07.2373/2019,2000,g 11.5,4.0
# From MPC112393
